OBJECT_NAME,OBJECT_ID,EPOCH,MEAN_MOTION,ECCENTRICITY,INCLINATION,RA_OF_ASC_NODE,ARG_OF_PERICENTER,MEAN_ANOMALY,EPHEMERIS_TYPE,CLASSIFICATION_TYPE,NORAD_CAT_ID,ELEMENT_SET_NO,REV_AT_EPOCH,BSTAR,MEAN_MOTION_DOT,MEAN_MOTION_DDOT
CHUANGXIN 1-02 (CX-1-02),2008-056B,2026-07-01T23:45:05.201856,14.30155427,.00154952,98.6126,209.1083,96.0972,264.1976,0,U,33434,999,92073,-.3693644E-4,-.139E-5,0
STARS (KUKAI),2009-002G,2026-07-01T06:24:30.780288,14.95844453,.0010126,98.1554,130.1510,118.6113,241.6126,0,U,33498,999,94058,.4771652E-3,.5274E-4,0
KKS-1 (KISEKI),2009-002H,2026-07-01T21:31:05.865888,14.83161466,.00065247,98.1183,105.5719,237.6468,122.4114,0,U,33499,999,93837,.18499241E-3,.1454E-4,0
UK-DMC 2,2009-041C,2026-07-01T22:27:58.044672,14.76077415,.00012452,97.8854,317.5430,95.0482,265.0870,0,U,35683,999,90874,.13098044E-3,.854E-5,0
OCEANSAT-2,2009-051A,2026-07-01T22:12:56.560896,13.99659482,.00164182,98.2318,168.3060,192.1445,167.9328,0,U,35931,999,88139,-.1311569E-3,-.229E-5,0
SWISSCUBE,2009-051B,2026-07-01T16:09:10.001952,14.62508928,.00070161,98.4025,90.8133,156.6940,203.4580,0,U,35932,999,89127,.21580976E-3,.1045E-4,0
BEESAT-1,2009-051C,2026-07-01T23:07:54.883488,14.61744129,.00052412,98.3951,90.7133,166.7581,193.3758,0,U,35933,999,89134,.18879774E-3,.892E-5,0
ITUPSAT1,2009-051E,2026-07-01T06:46:52.054752,14.60461628,.00070704,98.4035,89.1986,185.0409,175.0721,0,U,35935,999,89079,.18802404E-3,.863E-5,0
DMSP 5D-3 F18 (USA 210),2009-057A,2026-07-01T22:05:46.761504,14.14905043,.00104487,98.9044,163.6582,203.7913,156.2778,0,U,35951,999,86167,.15748267E-3,.26E-5,0
PROBA-2,2009-059B,2026-07-01T18:03:01.160064,14.54868696,.00121977,98.2453,5.9031,232.3480,127.6611,0,U,36037,999,88364,.55889879E-4,.195E-5,0
YAOGAN-7,2009-069A,2026-07-01T21:57:26.318880,14.78024701,.00245006,98.0052,68.6898,355.2314,4.8659,0,U,36110,999,89180,.80423464E-4,.53E-5,0
XIWANG-1 (HOPE-1),2009-072B,2026-07-01T21:52:51.841632,13.16441276,.00071721,100.4032,136.5094,195.5414,164.5480,0,U,36122,999,79494,.10746202E-2,.366E-5,0
COSMOS 2463,2010-017A,2026-07-01T15:42:20.541024,13.71666531,.003761,82.9594,239.0769,90.1387,75.5510,0,U,36519,999,80991,.46228338E-4,.57E-6,0
CARTOSAT-2B,2010-035A,2026-07-01T22:57:10.864800,14.78600942,.0012009,97.9946,233.4116,137.6210,222.5931,0,U,36795,999,86203,.54937227E-4,.35E-5,0
TISAT 1,2010-035E,2026-07-01T19:31:19.496640,15.32268645,.00032977,98.0711,130.6661,144.1100,216.0362,0,U,36799,999,86994,.81328932E-3,.25312E-3,0
YAOGAN-10,2010-038A,2026-07-01T23:23:01.421664,14.85393795,.00017083,97.8966,206.2603,87.0765,1.0780,0,U,36834,999,85940,.22153475E-3,.1854E-4,0
SHIJIAN-6 04B (SJ-6 04B),2010-051B,2026-07-01T23:19:56.225856,14.99361658,.0006838,97.8715,188.5373,260.4539,99.5911,0,U,37180,999,85789,.14547093E-3,.1718E-4,0
FENGYUN 3B,2010-059A,2026-07-02T00:19:45.532416,14.14842655,.00227048,98.9611,229.0905,142.3810,281.1872,0,U,37214,999,80952,-.19619754E-3,-.425E-5,0
COSMO-SKYMED 4,2010-060A,2026-07-01T23:00:15.600096,14.82159043,.00014827,97.8883,6.3441,82.7093,277.4289,0,U,37216,999,84675,.10454839E-3,.78E-5,0
O/OREOS (USA 219),2010-062C,2026-07-01T07:50:08.222784,14.93804016,.00131662,71.9707,48.3104,32.9496,327.2493,0,U,37224,999,11875,.25407922E-3,.2639E-4,0
RESOURCESAT-2,2011-015A,2026-07-01T22:33:18.294048,14.21603390,.00107935,98.7639,250.2794,209.3896,150.6675,0,U,37387,999,78827,.64777746E-4,.98E-6,0
YOUTHSAT,2011-015B,2026-07-01T21:27:08.062848,14.25636174,.00134126,98.3691,156.2853,301.9045,112.8510,0,U,37388,999,78973,.93567214E-4,.18E-5,0
APRIZESAT 6,2011-044F,2026-07-01T16:58:01.377696,14.76938675,.00440518,98.2352,93.5024,40.8859,349.1550,0,U,37793,999,79929,.13087675E-3,.879E-5,0
JUGNU,2011-058B,2026-07-01T18:48:26.106336,14.13780252,.00183488,19.9591,219.7499,237.3711,278.2214,0,U,37839,999,76109,.63586546E-4,.389E-5,0
SRMSAT,2011-058D,2026-07-01T18:37:46.868160,14.11578614,.00118043,19.9733,331.1680,4.9086,23.3871,0,U,37841,999,75988,.64524419E-4,.384E-5,0
